0 STARLINK-2443

1 48107U 21027R   26149.20832992  .00003958  00000-0  13919-3 0  9990

2 48107  53.1585 138.2711 0001575  93.9974 266.1207 15.31710053285017

0 GHGSAT-C5

1 52744U 22057N   26149.16793052  .00008692  00000-0  26611-3 0  9997

2 52744  97.6658 295.6703 0006928 174.8584 185.2730 15.34055468222620

0 OBJECT AS

1 57044U 23085AS  26151.22491313  .00024783  00000-0  70451-3 0  9992

2 57044  97.4912 264.3914 0008184 137.2392 222.9489 15.36119913164243

0 STARLINK-34442

1 64672U 25139J   26150.28875068  .00027716  00000-0  82796-3 0  9991

2 64672  53.1597 106.8617 0001014  99.1127 260.9991 15.34416643 52797

0 STARLINK-1017

1 44723U 19074L   26150.51919821  .00042312  00000-0  14119-2 0  9991

2 44723  53.0464 151.8820 0005612  11.2177 348.8947 15.30658244361474

0 STARLINK-35402

1 66079U 25235X   26150.59280894  .00018785  00000-0  64471-3 0  9998

2 66079  53.1594 224.6593 0001091  88.4540 271.6586 15.30203167 35469

0 STARLINK-2356

1 47896U 21021AN  26150.71238574  .00002565  00000-0  94327-4 0  9998

2 47896  53.1598 259.4484 0001133  88.2841 271.8290 15.31723677288584

0 TIANMU-1 19

1 58660U 23208A   26151.16788605  .00010048  00000-0  33483-3 0  9993

2 58660  97.4492 267.3859 0005315  33.4498 326.7078 15.31289328134729